{
  "norad_id": 55159,
  "name": "ONEWEB-0618",
  "history": [
    {
      "epoch": "2026-03-28T19:41:34.017504",
      "apogee_km": 536.9829498176032,
      "perigee_km": 521.4692885464447,
      "latitude_deg": 82.87901160487334,
      "longitude_deg": 134.67113055987284,
      "semi_major_axis_km": 6907.363119182023,
      "eccentricity": 0.00112298,
      "inclination_deg": 86.9104,
      "raan_deg": 210.2192,
      "arg_perigee_deg": 222.8155,
      "mean_anomaly_deg": 137.2211,
      "mean_motion_rev_day": 15.1228739
    }
  ]
}